     2.11           N: GPS NAV DATA                         RINEX VERSION / TYPE
teqc  2019Feb25                         20221121 12:23:44UTCPGM / RUN BY / DATE
OSX ker:10.11.6|Core i5|gcc 4.3 -m64|OSX ker:10.10+|=+      COMMENT
    6.5193D-09  2.2352D-08 -5.9605D-08 -1.1921D-07          ION ALPHA
    8.6016D+04  9.8304D+04 -6.5536D+04 -5.2429D+05          ION BETA
   -1.862645149231D-09-7.993605777301D-15   233472     1534 DELTA-UTC: A0,A1,T,W
                                                            END OF HEADER
12 09  5 31 10  0  0.0-2.734288573265D-04 5.570655048359D-12 0.000000000000D+00
    4.800000000000D+01-5.693750000000D+01 4.443756528868D-09-2.340356764979D+00
   -2.764165401459D-06 3.344462485984D-03 6.457790732384D-06 5.153649028778D+03
    3.600000000000D+04-5.215406417847D-08-2.609086974899D+00 3.911554813385D-08
    9.671223826320D-01 2.577187500000D+02-6.950847080395D-01-8.106051935314D-09
    6.535986535788D-11 1.000000000000D+00 1.534000000000D+03 0.000000000000D+00
    2.000000000000D+00 0.000000000000D+00-1.164153218269D-08 4.800000000000D+01
    2.881800000000D+04 4.000000000000D+00
13 09  5 31 10  0  0.0 2.983701415360D-04 7.958078640513D-13 0.000000000000D+00
    1.090000000000D+02-1.437500000000D+00 3.546933458301D-09-3.366170404223D-02
   -5.215406417847D-08 4.143333993852D-03 9.726732969284D-06 5.153704521179D+03
    3.600000000000D+04-1.471489667892D-07 1.632428347182D+00 2.235174179077D-08
    9.946836992658D-01 2.106875000000D+02 1.577105981709D+00-7.654247401556D-09
   -1.789360248322D-10 1.000000000000D+00 1.534000000000D+03 0.000000000000D+00
    2.000000000000D+00 0.000000000000D+00-1.117587089539D-08 1.090000000000D+02
    2.881800000000D+04 4.000000000000D+00
20 09  5 31 10  0  0.0 8.118432015181D-05-1.023181539495D-12 0.000000000000D+00
    7.400000000000D+01 4.687500000000D-01 5.235575225580D-09 1.808797632322D+00
   -2.197921276093D-07 3.963879891671D-03 5.207955837250D-06 5.153597787857D+03
    3.600000000000D+04-1.117587089539D-08 5.028196198383D-01-6.146728992462D-08
    9.421842156287D-01 2.674687500000D+02 1.363771937090D+00-8.508568701753D-09
   -3.557291032593D-10 1.000000000000D+00 1.534000000000D+03 0.000000000000D+00
    2.000000000000D+00 0.000000000000D+00-6.519258022308D-09 7.400000000000D+01
    2.881800000000D+04 4.000000000000D+00
31 09  5 31 10  0  0.0-6.139790639281D-05-7.958078640513D-13 0.000000000000D+00
    2.800000000000D+01 2.809375000000D+01 4.240176620376D-09-2.540254645814D+00
    1.484528183937D-06 7.048044586554D-03 6.604939699173D-06 5.153719514847D+03
    3.600000000000D+04 1.527369022369D-07 2.620318566489D+00 4.284083843231D-08
    9.730076186786D-01 2.593437500000D+02-1.139693296069D+00-7.997475984119D-09
    2.864405028253D-10 1.000000000000D+00 1.534000000000D+03 0.000000000000D+00
    2.000000000000D+00 0.000000000000D+00-1.303851604462D-08 2.800000000000D+01
    2.881800000000D+04 4.000000000000D+00
29 09  5 31 10  0  0.0 2.550939098001D-05 3.751665644813D-12 0.000000000000D+00
    5.800000000000D+01-1.271875000000D+01 4.536617539759D-09 2.954335940042D+00
   -9.667128324509D-07 3.427870338783D-03 1.093000173569D-05 5.153678056717D+03
    3.600000000000D+04 1.005828380585D-07-1.541507220523D+00 3.352761268616D-08
    9.595880707177D-01 1.663125000000D+02-1.318883973794D+00-7.939259273445D-09
    7.607459738377D-11 1.000000000000D+00 1.534000000000D+03 0.000000000000D+00
    2.000000000000D+00 0.000000000000D+00-8.847564458847D-09 5.800000000000D+01
    3.120600000000D+04 4.000000000000D+00
10 09  5 31  9 59 44.0-1.680385321379D-05-5.684341886081D-13 0.000000000000D+00
    3.200000000000D+01-7.812500000000D-01 4.884132015131D-09 2.710771869501D-01
    1.136213541031D-07 8.589047822170D-03 5.675479769707D-06 5.153609333038D+03
    3.598400000000D+04-9.313225746155D-09 5.512651146333D-01 4.656612873077D-08
    9.584701218878D-01 2.647187500000D+02 6.266828045628D-01-8.479638925283D-09
   -4.189460222120D-10 1.000000000000D+00 1.534000000000D+03 0.000000000000D+00
    2.000000000000D+00 0.000000000000D+00-2.793967723846D-09 3.200000000000D+01
    3.168600000000D+04 4.000000000000D+00
25 09  5 31 10  0  0.0 4.396848380566D-04 1.887201506179D-11 0.000000000000D+00
    1.100000000000D+01 2.362500000000D+01 4.150530029093D-09 2.083928909055D+00
    1.251697540283D-06 1.140878326260D-02 7.033348083496D-06 5.153648578644D+03
    3.600000000000D+04 1.471489667892D-07 2.527950011128D+00 4.842877388000D-08
    9.698424242527D-01 2.460000000000D+02-1.207374351051D+00-7.824254483034D-09
    2.467959943295D-10 1.000000000000D+00 1.534000000000D+03 0.000000000000D+00
    2.000000000000D+00 0.000000000000D+00-7.450580596924D-09 1.100000000000D+01
    3.306600000000D+04 4.000000000000D+00
24 09  5 31 10  0  0.0 1.930980943143D-04 2.955857780762D-12 0.000000000000D+00
    1.900000000000D+01 5.775000000000D+01 5.065925301837D-09 1.588554943907D+00
    3.010034561157D-06 6.704863277264D-03 6.970018148422D-06 5.153675596237D+03
    3.600000000000D+04 1.192092895508D-07-4.691353795431D-01 5.960464477539D-08
    9.508337933812D-01 2.394062500000D+02-6.496657683870D-01-8.281059225070D-09
    7.786038605475D-11 1.000000000000D+00 1.534000000000D+03 0.000000000000D+00
    2.000000000000D+00 0.000000000000D+00-1.396983861923D-09 1.900000000000D+01
    3.408600000000D+04 4.000000000000D+00
 7 09  5 31 10  0  0.0 1.792376860976D-05-6.821210263297D-13 0.000000000000D+00
    3.000000000000D+01 2.256250000000D+01 4.326965949786D-09-2.361636078776D+00
    1.251697540283D-06 2.604368608445D-03 7.005408406258D-06 5.153665971756D+03
    3.600000000000D+04-3.166496753693D-08 2.622420065865D+00-3.725290298462D-09
    9.676355772201D-01 2.492500000000D+02 2.877598863315D+00-8.066050269084D-09
    3.450143712334D-10 1.000000000000D+00 1.534000000000D+03 0.000000000000D+00
    2.000000000000D+00 0.000000000000D+00-1.071020960808D-08 3.000000000000D+01
    3.540600000000D+04 4.000000000000D+00
16 09  5 31  9 59 44.0 4.624109715223D-05-3.410605131648D-12 0.000000000000D+00
    1.900000000000D+01-5.868750000000D+01 4.476615040414D-09 1.478459472869D+00
   -2.995133399963D-06 5.365245509893D-03 5.999580025673D-06 5.153551982880D+03
    3.598400000000D+04 4.097819328308D-08-2.592135881253D+00 1.192092895508D-07
    9.685623255829D-01 2.670625000000D+02-3.520078090525D-01-8.131767292176D-09
   -7.893185925733D-11 1.000000000000D+00 1.534000000000D+03 0.000000000000D+00
    2.000000000000D+00 0.000000000000D+00-9.778887033463D-09 1.900000000000D+01
    3.549600000000D+04 4.000000000000D+00
 2 09  5 31 12  0  0.0 1.551914028823D-04 7.958078640513D-13 0.000000000000D+00
    9.200000000000D+01 5.293750000000D+01 5.328793394206D-09 3.882235822705D-01
    2.779066562653D-06 9.049710817635D-03 7.662922143936D-06 5.153659297943D+03
    4.320000000000D+04 8.381903171539D-08-5.328705055897D-01-9.685754776001D-08
    9.414205080229D-01 2.216250000000D+02 2.827217152554D+00-8.477138821144D-09
    2.510818871398D-10 1.000000000000D+00 1.534000000000D+03 0.000000000000D+00
    2.000000000000D+00 0.000000000000D+00-1.722946763039D-08 9.200000000000D+01
    3.601800000000D+04 4.000000000000D+00
13 09  5 31 12  0  0.0 2.983761951327D-04 7.958078640513D-13 0.000000000000D+00
    1.100000000000D+02-8.375000000000D+00 3.554076612985D-09 1.016388069763D+00
   -6.053596735001D-07 4.145192331634D-03 1.045130193233D-05 5.153708017349D+03
    4.320000000000D+04-5.587935447693D-08 1.632373490680D+00-5.960464477539D-08
    9.946819423012D-01 1.973125000000D+02 1.577209335408D+00-7.682462862558D-09
   -2.585821995580D-10 1.000000000000D+00 1.534000000000D+03 0.000000000000D+00
    2.800000000000D+00 0.000000000000D+00-1.117587089539D-08 1.100000000000D+02
    3.601800000000D+04 4.000000000000D+00
29 09  5 31 12  0  0.0 2.553686499596D-05 3.751665644813D-12 0.000000000000D+00
    5.900000000000D+01-1.159375000000D+01 4.439113478323D-09-2.278582319277D+00
   -5.196779966354D-07 3.428683965467D-03 1.030787825584D-05 5.153676792145D+03
    4.320000000000D+04 2.607703208923D-08-1.541564533265D+00 6.332993507385D-08
    9.595889353023D-01 1.757812500000D+02-1.318971748879D+00-7.912472443380D-09
    1.271481533738D-10 1.000000000000D+00 1.534000000000D+03 0.000000000000D+00
    2.000000000000D+00 0.000000000000D+00-8.847564458847D-09 5.900000000000D+01
    3.601800000000D+04 4.000000000000D+00
 4 09  5 31 12  0  0.0-1.134290359914D-04-1.568878360558D-11 0.000000000000D+00
    8.700000000000D+01 5.718750000000D+01 5.237361014251D-09-3.023264833424D+00
    2.885237336159D-06 8.595375926234D-03 8.011236786842D-06 5.153746625900D+03
    4.320000000000D+04-1.415610313416D-07-5.145054050667D-01-1.657754182816D-07
    9.406418069698D-01 2.163125000000D+02 4.866340361123D-01-8.238200296967D-09
    2.385813664430D-10 1.000000000000D+00 1.534000000000D+03 0.000000000000D+00
    2.000000000000D+00 0.000000000000D+00-6.053596735001D-09 8.700000000000D+01
    3.601800000000D+04 4.000000000000D+00
23 09  5 31 12  0  0.0 3.901626914740D-04 1.136868377216D-13 0.000000000000D+00
    7.500000000000D+01-8.468750000000D+00 4.188388748917D-09 2.654900365542D-01
   -7.469207048416D-07 6.134497118182D-03 9.931623935699D-06 5.153610557556D+03
    4.320000000000D+04 7.264316082001D-08 1.580240375857D+00-2.607703208923D-08
    9.701794630231D-01 1.906875000000D+02 2.885106700800D+00-8.031405968867D-09
   -3.096557555480D-10 1.000000000000D+00 1.534000000000D+03 0.000000000000D+00
    2.000000000000D+00 0.000000000000D+00-2.002343535423D-08 7.500000000000D+01
    3.601800000000D+04 4.000000000000D+00
